[
    {
        "Altitude(m)": 622200.0797710979,
        "Argument of Periapsis(deg)": 0.0,
        "Eccentricity": 0.0,
        "Inclination(deg)": 60.0,
        "Latitude(deg)": -52.16246252136212,
        "Longitude(deg)": 67.36082471173007,
        "Mean Anomaly(deg)": -65.45449999999998,
        "RAAN(deg)": 215.0,
        "Satellite Name": "Test1 964",
        "Satellite Number": 964,
        "Semi-Major Axis(m)": 6980739.136638005,
        "Time(s)": 0
    },
    {
        "Altitude(m)": 622058.2471626953,
        "Argument of Periapsis(deg)": 0.00010418945913296404,
        "Eccentricity": 0.0,
        "Inclination(deg)": 60.0,
        "Latitude(deg)": -51.79921142061786,
        "Longitude(deg)": 68.12888036840936,
        "Mean Anomaly(deg)": -64.83439385453813,
        "RAAN(deg)": 214.99957995086024,
        "Satellite Name": "Test1 964",
        "Satellite Number": 964,
        "Semi-Major Axis(m)": 6980739.136638005,
        "Time(s)": 10
    },
    {
        "Altitude(m)": 621913.6812782239,
        "Argument of Periapsis(deg)": 0.0002083789182659281,
        "Eccentricity": 0.0,
        "Inclination(deg)": 60.0,
        "Latitude(deg)": -51.43044876905587,
        "Longitude(deg)": 68.88395730248526,
        "Mean Anomaly(deg)": -64.2142877090763,
        "RAAN(deg)": 214.99915990172053,
        "Satellite Name": "Test1 964",
        "Satellite Number": 964,
        "Semi-Major Axis(m)": 6980739.136638005,
        "Time(s)": 20
    },
    {
        "Altitude(m)": 621766.4385572015,
        "Argument of Periapsis(deg)": 0.00031256837739889213,
        "Eccentricity": 0.0,
        "Inclination(deg)": 60.0,
        "Latitude(deg)": -51.056331686618805,
        "Longitude(deg)": 69.62624521165155,
        "Mean Anomaly(deg)": -63.59418156361444,
        "RAAN(deg)": 214.99873985258077,
        "Satellite Name": "Test1 964",
        "Satellite Number": 964,
        "Semi-Major Axis(m)": 6980739.136638005,
        "Time(s)": 30
    },
    {
        "Altitude(m)": 621616.5764555549,
        "Argument of Periapsis(deg)": 0.0004167578365318562,
        "Eccentricity": 0.0,
        "Inclination(deg)": 60.0,
        "Latitude(deg)": -50.67701360272518,
        "Longitude(deg)": 70.35594155892285,
        "Mean Anomaly(deg)": -62.974075418152616,
        "RAAN(deg)": 214.99831980344103,
        "Satellite Name": "Test1 964",
        "Satellite Number": 964,
        "Semi-Major Axis(m)": 6980739.136638005,
        "Time(s)": 40
    },
    {
        "Altitude(m)": 621464.1534210012,
        "Argument of Periapsis(deg)": 0.0005209472956648203,
        "Eccentricity": 0.0,
        "Inclination(deg)": 60.0,
        "Latitude(deg)": -50.29264422926788,
        "Longitude(deg)": 71.0732495228124,
        "Mean Anomaly(deg)": -62.35396927269076,
        "RAAN(deg)": 214.99789975430127,
        "Satellite Name": "Test1 964",
        "Satellite Number": 964,
        "Semi-Major Axis(m)": 6980739.136638005,
        "Time(s)": 50
    },
    {
        "Altitude(m)": 621309.2288680065,
        "Argument of Periapsis(deg)": 0.0006251367547977843,
        "Eccentricity": 0.0,
        "Inclination(deg)": 60.0,
        "Latitude(deg)": -49.90336954816546,
        "Longitude(deg)": 71.77837752972722,
        "Mean Anomaly(deg)": -61.733863127229036,
        "RAAN(deg)": 214.99747970516157,
        "Satellite Name": "Test1 964",
        "Satellite Number": 964,
        "Semi-Major Axis(m)": 6980739.136638005,
        "Time(s)": 60
    },
    {
        "Altitude(m)": 621151.8631523143,
        "Argument of Periapsis(deg)": 0.0007293262139307483,
        "Eccentricity": 0.0,
        "Inclination(deg)": 60.0,
        "Latitude(deg)": -49.50933181206447,
        "Longitude(deg)": 72.47153885430423,
        "Mean Anomaly(deg)": -61.113756981767196,
        "RAAN(deg)": 214.9970596560218,
        "Satellite Name": "Test1 964",
        "Satellite Number": 964,
        "Semi-Major Axis(m)": 6980739.136638005,
        "Time(s)": 70
    },
    {
        "Altitude(m)": 620992.1175450163,
        "Argument of Periapsis(deg)": 0.0008335156730637124,
        "Eccentricity": 0.0,
        "Inclination(deg)": 60.0,
        "Latitude(deg)": -49.11066955686224,
        "Longitude(deg)": 73.15294977299388,
        "Mean Anomaly(deg)": -60.493650836305356,
        "RAAN(deg)": 214.99663960688207,
        "Satellite Name": "Test1 964",
        "Satellite Number": 964,
        "Semi-Major Axis(m)": 6980739.136638005,
        "Time(s)": 80
    },
    {
        "Altitude(m)": 620830.0542062571,
        "Argument of Periapsis(deg)": 0.0009377051321966765,
        "Eccentricity": 0.0,
        "Inclination(deg)": 60.0,
        "Latitude(deg)": -48.70751762478668,
        "Longitude(deg)": 73.82282929447712,
        "Mean Anomaly(deg)": -59.87354469084352,
        "RAAN(deg)": 214.9962195577423,
        "Satellite Name": "Test1 964",
        "Satellite Number": 964,
        "Semi-Major Axis(m)": 6980739.136638005,
        "Time(s)": 90
    },
    {
        "Altitude(m)": 620665.7361585075,
        "Argument of Periapsis(deg)": 0.0010418945913296407,
        "Eccentricity": 0.0,
        "Inclination(deg)": 60.0,
        "Latitude(deg)": -48.300007196852036,
        "Longitude(deg)": 74.48139895162754,
        "Mean Anomaly(deg)": -59.25343854538168,
        "RAAN(deg)": 214.9957995086026,
        "Satellite Name": "Test1 964",
        "Satellite Number": 964,
        "Semi-Major Axis(m)": 6980739.136638005,
        "Time(s)": 100
    },
    {
        "Altitude(m)": 620499.2272594406,
        "Argument of Periapsis(deg)": 0.0011460840504626045,
        "Eccentricity": 0.0,
        "Inclination(deg)": 60.0,
        "Latitude(deg)": -47.888265833583425,
        "Longitude(deg)": 75.12888113953127,
        "Mean Anomaly(deg)": -58.63333239991982,
        "RAAN(deg)": 214.99537945946287,
        "Satellite Name": "Test1 964",
        "Satellite Number": 964,
        "Semi-Major Axis(m)": 6980739.136638005,
        "Time(s)": 110
    },
    {
        "Altitude(m)": 620330.59217444,
        "Argument of Periapsis(deg)": 0.0012502735095955685,
        "Eccentricity": 0.0,
        "Inclination(deg)": 60.0,
        "Latitude(deg)": -47.47241752297843,
        "Longitude(deg)": 75.76549902255049,
        "Mean Anomaly(deg)": -58.013226254458,
        "RAAN(deg)": 214.9949594103231,
        "Satellite Name": "Test1 964",
        "Satellite Number": 964,
        "Semi-Major Axis(m)": 6980739.136638005,
        "Time(s)": 120
    },
    {
        "Altitude(m)": 620159.8963487402,
        "Argument of Periapsis(deg)": 0.0013544629687285324,
        "Eccentricity": 0.0,
        "Inclination(deg)": 60.0,
        "Latitude(deg)": -47.052582734750274,
        "Longitude(deg)": 76.39147649471191,
        "Mean Anomaly(deg)": -57.39312010899625,
        "RAAN(deg)": 214.99453936118334,
        "Satellite Name": "Test1 964",
        "Satellite Number": 964,
        "Semi-Major Axis(m)": 6980739.136638005,
        "Time(s)": 130
    },
    {
        "Altitude(m)": 619987.2059791894,
        "Argument of Periapsis(deg)": 0.0014586524278614966,
        "Eccentricity": 0.0,
        "Inclination(deg)": 60.0,
        "Latitude(deg)": -46.62887847997232,
        "Longitude(deg)": 77.00703667765481,
        "Mean Anomaly(deg)": -56.77301396353432,
        "RAAN(deg)": 214.99411931204364,
        "Satellite Name": "Test1 964",
        "Satellite Number": 964,
        "Semi-Major Axis(m)": 6980739.136638005,
        "Time(s)": 140
    },
    {
        "Altitude(m)": 619812.5879856881,
        "Argument of Periapsis(deg)": 0.0015628418869944607,
        "Eccentricity": 0.0,
        "Inclination(deg)": 60.0,
        "Latitude(deg)": -46.201418375311846,
        "Longitude(deg)": 77.61240197896923,
        "Mean Anomaly(deg)": -56.15290781807257,
        "RAAN(deg)": 214.99369926290385,
        "Satellite Name": "Test1 964",
        "Satellite Number": 964,
        "Semi-Major Axis(m)": 6980739.136638005,
        "Time(s)": 150
    },
    {
        "Altitude(m)": 619636.1099822703,
        "Argument of Periapsis(deg)": 0.0016670313461274247,
        "Eccentricity": 0.0,
        "Inclination(deg)": 60.0,
        "Latitude(deg)": -45.77031271110974,
        "Longitude(deg)": 78.20779419516931,
        "Mean Anomaly(deg)": -55.53280167261074,
        "RAAN(deg)": 214.99327921376414,
        "Satellite Name": "Test1 964",
        "Satellite Number": 964,
        "Semi-Major Axis(m)": 6980739.136638005,
        "Time(s)": 160
    },
    {
        "Altitude(m)": 619457.8402478804,
        "Argument of Periapsis(deg)": 0.0017712208052603888,
        "Eccentricity": 0.0,
        "Inclination(deg)": 60.0,
        "Latitude(deg)": -45.33566852263339,
        "Longitude(deg)": 78.7934331435809,
        "Mean Anomaly(deg)": -54.91269552714889,
        "RAAN(deg)": 214.99285916462438,
        "Satellite Name": "Test1 964",
        "Satellite Number": 964,
        "Semi-Major Axis(m)": 6980739.136638005,
        "Time(s)": 170
    },
    {
        "Altitude(m)": 619277.8476968111,
        "Argument of Periapsis(deg)": 0.001875410264393353,
        "Eccentricity": 0.0,
        "Inclination(deg)": 60.0,
        "Latitude(deg)": -44.897589663882776,
        "Longitude(deg)": 79.3695368461088,
        "Mean Anomaly(deg)": -54.29258938168706,
        "RAAN(deg)": 214.99243911548464,
        "Satellite Name": "Test1 964",
        "Satellite Number": 964,
        "Semi-Major Axis(m)": 6980739.136638005,
        "Time(s)": 180
    },
    {
        "Altitude(m)": 619096.2018488774,
        "Argument of Periapsis(deg)": 0.0019795997235263173,
        "Eccentricity": 0.0,
        "Inclination(deg)": 60.0,
        "Latitude(deg)": -44.45617688339606,
        "Longitude(deg)": 79.9363217493138,
        "Mean Anomaly(deg)": -53.672483236225204,
        "RAAN(deg)": 214.99201906634488,
        "Satellite Name": "Test1 964",
        "Satellite Number": 964,
        "Semi-Major Axis(m)": 6980739.136638005,
        "Time(s)": 190
    }
]